[{"OBJECT_NAME":"STARLINK-31704","OBJECT_ID":"2024-076Y","EPOCH":"2026-03-09T22:00:01.999584","MEAN_MOTION":15.30892355,"ECCENTRICITY":0.00079744,"INCLINATION":42.9978,"RA_OF_ASC_NODE":323.2923,"ARG_OF_PERICENTER":240.5046,"MEAN_ANOMALY":200.4144,"EPHEMERIS_TYPE":0,"CLASSIFICATION_TYPE":"U","NORAD_CAT_ID":59586,"ELEMENT_SET_NO":999,"REV_AT_EPOCH":581,"BSTAR":0.0024766131,"MEAN_MOTION_DOT":0.00076042,"MEAN_MOTION_DDOT":0},{"OBJECT_NAME":"STARLINK-32428","OBJECT_ID":"2024-193F","EPOCH":"2026-03-09T11:02:31.536672","MEAN_MOTION":15.30192998,"ECCENTRICITY":0.00012854,"INCLINATION":53.1596,"RA_OF_ASC_NODE":91.917,"ARG_OF_PERICENTER":77.468,"MEAN_ANOMALY":282.6465,"EPHEMERIS_TYPE":0,"CLASSIFICATION_TYPE":"U","NORAD_CAT_ID":61666,"ELEMENT_SET_NO":999,"REV_AT_EPOCH":7649,"BSTAR":6.8204523e-5,"MEAN_MOTION_DOT":1.661e-5,"MEAN_MOTION_DDOT":0}]
